CCSDS_OMM_VERS = 2.0
CREATION_DATE  = 
ORIGINATOR     = 

OBJECT_NAME    = UNKNOWN
OBJECT_ID      = 
CENTER_NAME    = EARTH
REF_FRAME      = TEME
TIME_SYSTEM    = UTC
MEAN_ELEMENT_THEORY = SGP/SGP4

EPOCH          = 2025-11-14T20:22:42.917376
MEAN_MOTION    = 12.95254406
ECCENTRICITY   = .00298062
INCLINATION    = 90.2369
RA_OF_ASC_NODE = 0.0847
ARG_OF_PERICENTER = 84.5606
MEAN_ANOMALY   = 275.8912

EPHEMERIS_TYPE = 0
CLASSIFICATION_TYPE = U
NORAD_CAT_ID   = 270113
ELEMENT_SET_NO = 999
REV_AT_EPOCH   = 28171
BSTAR          = .10615771E-2
MEAN_MOTION_DOT = .307E-5
MEAN_MOTION_DDOT = 0

CCSDS_OMM_VERS = 2.0
CREATION_DATE  = 
ORIGINATOR     = 

OBJECT_NAME    = UNKNOWN
OBJECT_ID      = 
CENTER_NAME    = EARTH
REF_FRAME      = TEME
TIME_SYSTEM    = UTC
MEAN_ELEMENT_THEORY = SGP/SGP4

EPOCH          = 2025-11-09T10:05:20.901984
MEAN_MOTION    = 12.95756657
ECCENTRICITY   = .00493026
INCLINATION    = 90.2421
RA_OF_ASC_NODE = 3.9388
ARG_OF_PERICENTER = 346.3995
MEAN_ANOMALY   = 13.5793

EPHEMERIS_TYPE = 0
CLASSIFICATION_TYPE = U
NORAD_CAT_ID   = 270114
ELEMENT_SET_NO = 999
REV_AT_EPOCH   = 28159
BSTAR          = .57450687E-3
MEAN_MOTION_DOT = .171E-5
MEAN_MOTION_DDOT = 0

CCSDS_OMM_VERS = 2.0
CREATION_DATE  = 
ORIGINATOR     = 

OBJECT_NAME    = UNKNOWN
OBJECT_ID      = 
CENTER_NAME    = EARTH
REF_FRAME      = TEME
TIME_SYSTEM    = UTC
MEAN_ELEMENT_THEORY = SGP/SGP4

EPOCH          = 2025-11-16T09:50:41.870112
MEAN_MOTION    = 12.97034858
ECCENTRICITY   = .00311162
INCLINATION    = 90.2429
RA_OF_ASC_NODE = 6.0172
ARG_OF_PERICENTER = 291.5107
MEAN_ANOMALY   = 68.2697

EPHEMERIS_TYPE = 0
CLASSIFICATION_TYPE = U
NORAD_CAT_ID   = 270115
ELEMENT_SET_NO = 999
REV_AT_EPOCH   = 28181
BSTAR          = .10477018E-2
MEAN_MOTION_DOT = .31E-5
MEAN_MOTION_DDOT = 0

CCSDS_OMM_VERS = 2.0
CREATION_DATE  = 
ORIGINATOR     = 

OBJECT_NAME    = UNKNOWN
OBJECT_ID      = 
CENTER_NAME    = EARTH
REF_FRAME      = TEME
TIME_SYSTEM    = UTC
MEAN_ELEMENT_THEORY = SGP/SGP4

EPOCH          = 2025-11-11T11:35:21.033312
MEAN_MOTION    = 12.23511451
ECCENTRICITY   = .0133354
INCLINATION    = 74.0099
RA_OF_ASC_NODE = 22.8647
ARG_OF_PERICENTER = 255.8612
MEAN_ANOMALY   = 102.7576

EPHEMERIS_TYPE = 0
CLASSIFICATION_TYPE = U
NORAD_CAT_ID   = 270116
ELEMENT_SET_NO = 999
REV_AT_EPOCH   = 26629
BSTAR          = .7622867E-3
MEAN_MOTION_DOT = .69E-6
MEAN_MOTION_DDOT = 0

CCSDS_OMM_VERS = 2.0
CREATION_DATE  = 
ORIGINATOR     = 

OBJECT_NAME    = UNKNOWN
OBJECT_ID      = 
CENTER_NAME    = EARTH
REF_FRAME      = TEME
TIME_SYSTEM    = UTC
MEAN_ELEMENT_THEORY = SGP/SGP4

EPOCH          = 2025-10-29T14:05:49.571520
MEAN_MOTION    = 13.00209120
ECCENTRICITY   = .0029435
INCLINATION    = 90.2367
RA_OF_ASC_NODE = 356.0470
ARG_OF_PERICENTER = 116.8571
MEAN_ANOMALY   = 243.5566

EPHEMERIS_TYPE = 0
CLASSIFICATION_TYPE = U
NORAD_CAT_ID   = 270117
ELEMENT_SET_NO = 999
REV_AT_EPOCH   = 28079
BSTAR          = .14325409E-2
MEAN_MOTION_DOT = .441E-5
MEAN_MOTION_DDOT = 0

CCSDS_OMM_VERS = 2.0
CREATION_DATE  = 
ORIGINATOR     = 

OBJECT_NAME    = UNKNOWN
OBJECT_ID      = 
CENTER_NAME    = EARTH
REF_FRAME      = TEME
TIME_SYSTEM    = UTC
MEAN_ELEMENT_THEORY = SGP/SGP4

EPOCH          = 2025-11-16T11:35:17.551392
MEAN_MOTION    = 12.37771840
ECCENTRICITY   = .01283593
INCLINATION    = 47.2343
RA_OF_ASC_NODE = 252.0269
ARG_OF_PERICENTER = 256.0911
MEAN_ANOMALY   = 102.5580

EPHEMERIS_TYPE = 0
CLASSIFICATION_TYPE = U
NORAD_CAT_ID   = 270120
ELEMENT_SET_NO = 999
REV_AT_EPOCH   = 26974
BSTAR          = .34793057E-1
MEAN_MOTION_DOT = .4566E-4
MEAN_MOTION_DDOT = 0

CCSDS_OMM_VERS = 2.0
CREATION_DATE  = 
ORIGINATOR     = 

OBJECT_NAME    = UNKNOWN
OBJECT_ID      = 
CENTER_NAME    = EARTH
REF_FRAME      = TEME
TIME_SYSTEM    = UTC
MEAN_ELEMENT_THEORY = SGP/SGP4

EPOCH          = 2025-11-15T04:44:50.966304
MEAN_MOTION    = 14.54899056
ECCENTRICITY   = .00058663
INCLINATION    = 98.6858
RA_OF_ASC_NODE = 124.9637
ARG_OF_PERICENTER = 47.3897
MEAN_ANOMALY   = 312.7793

EPHEMERIS_TYPE = 0
CLASSIFICATION_TYPE = U
NORAD_CAT_ID   = 270121
ELEMENT_SET_NO = 999
REV_AT_EPOCH   = 31575
BSTAR          = .88170943E-3
MEAN_MOTION_DOT = .3742E-4
MEAN_MOTION_DDOT = 0

CCSDS_OMM_VERS = 2.0
CREATION_DATE  = 
ORIGINATOR     = 

OBJECT_NAME    = UNKNOWN
OBJECT_ID      = 
CENTER_NAME    = EARTH
REF_FRAME      = TEME
TIME_SYSTEM    = UTC
MEAN_ELEMENT_THEORY = SGP/SGP4

EPOCH          = 2025-11-15T09:32:25.161216
MEAN_MOTION    = 12.96231985
ECCENTRICITY   = .00281612
INCLINATION    = 90.2446
RA_OF_ASC_NODE = 7.0909
ARG_OF_PERICENTER = 19.4473
MEAN_ANOMALY   = 340.7715

EPHEMERIS_TYPE = 0
CLASSIFICATION_TYPE = U
NORAD_CAT_ID   = 270122
ELEMENT_SET_NO = 999
REV_AT_EPOCH   = 28167
BSTAR          = .66341976E-3
MEAN_MOTION_DOT = .197E-5
MEAN_MOTION_DDOT = 0

CCSDS_OMM_VERS = 2.0
CREATION_DATE  = 
ORIGINATOR     = 

OBJECT_NAME    = UNKNOWN
OBJECT_ID      = 
CENTER_NAME    = EARTH
REF_FRAME      = TEME
TIME_SYSTEM    = UTC
MEAN_ELEMENT_THEORY = SGP/SGP4

EPOCH          = 2025-11-15T09:22:37.082208
MEAN_MOTION    = 12.23568565
ECCENTRICITY   = .08148003
INCLINATION    = 83.2707
RA_OF_ASC_NODE = 16.9191
ARG_OF_PERICENTER = 234.9984
MEAN_ANOMALY   = 117.1980

EPHEMERIS_TYPE = 0
CLASSIFICATION_TYPE = U
NORAD_CAT_ID   = 270123
ELEMENT_SET_NO = 999
REV_AT_EPOCH   = 26618
BSTAR          = .78949148E-2
MEAN_MOTION_DOT = .252E-4
MEAN_MOTION_DDOT = 0

CCSDS_OMM_VERS = 2.0
CREATION_DATE  = 
ORIGINATOR     = 

OBJECT_NAME    = UNKNOWN
OBJECT_ID      = 
CENTER_NAME    = EARTH
REF_FRAME      = TEME
TIME_SYSTEM    = UTC
MEAN_ELEMENT_THEORY = SGP/SGP4

EPOCH          = 2025-11-12T21:09:05.135616
MEAN_MOTION    = 12.96850981
ECCENTRICITY   = .00254869
INCLINATION    = 90.2459
RA_OF_ASC_NODE = 8.3933
ARG_OF_PERICENTER = 239.6186
MEAN_ANOMALY   = 120.2414

EPHEMERIS_TYPE = 0
CLASSIFICATION_TYPE = U
NORAD_CAT_ID   = 270124
ELEMENT_SET_NO = 999
REV_AT_EPOCH   = 28224
BSTAR          = -.17170414E-3
MEAN_MOTION_DOT = -.42E-6
MEAN_MOTION_DDOT = 0

CCSDS_OMM_VERS = 2.0
CREATION_DATE  = 
ORIGINATOR     = 

OBJECT_NAME    = UNKNOWN
OBJECT_ID      = 
CENTER_NAME    = EARTH
REF_FRAME      = TEME
TIME_SYSTEM    = UTC
MEAN_ELEMENT_THEORY = SGP/SGP4

EPOCH          = 2025-11-15T08:33:41.629248
MEAN_MOTION    = 14.74111430
ECCENTRICITY   = .0015556
INCLINATION    = 86.3289
RA_OF_ASC_NODE = 348.6092
ARG_OF_PERICENTER = 358.0529
MEAN_ANOMALY   = 2.0626

EPHEMERIS_TYPE = 0
CLASSIFICATION_TYPE = U
NORAD_CAT_ID   = 270127
ELEMENT_SET_NO = 999
REV_AT_EPOCH   = 31668
BSTAR          = .17579143E-2
MEAN_MOTION_DOT = .11634E-3
MEAN_MOTION_DDOT = 0

CCSDS_OMM_VERS = 2.0
CREATION_DATE  = 
ORIGINATOR     = 

OBJECT_NAME    = UNKNOWN
OBJECT_ID      = 
CENTER_NAME    = EARTH
REF_FRAME      = TEME
TIME_SYSTEM    = UTC
MEAN_ELEMENT_THEORY = SGP/SGP4

EPOCH          = 2025-11-02T06:43:50.383200
MEAN_MOTION    = 12.33800451
ECCENTRICITY   = .00467032
INCLINATION    = 102.4345
RA_OF_ASC_NODE = 306.6193
ARG_OF_PERICENTER = 312.7756
MEAN_ANOMALY   = 46.9379

EPHEMERIS_TYPE = 0
CLASSIFICATION_TYPE = U
NORAD_CAT_ID   = 270128
ELEMENT_SET_NO = 999
REV_AT_EPOCH   = 26724
BSTAR          = .57992857E-3
MEAN_MOTION_DOT = .25E-6
MEAN_MOTION_DDOT = 0

CCSDS_OMM_VERS = 2.0
CREATION_DATE  = 
ORIGINATOR     = 

OBJECT_NAME    = UNKNOWN
OBJECT_ID      = 
CENTER_NAME    = EARTH
REF_FRAME      = TEME
TIME_SYSTEM    = UTC
MEAN_ELEMENT_THEORY = SGP/SGP4

EPOCH          = 2025-11-15T20:24:20.050848
MEAN_MOTION    = 12.98622842
ECCENTRICITY   = .00269
INCLINATION    = 90.2395
RA_OF_ASC_NODE = 3.8528
ARG_OF_PERICENTER = 275.9073
MEAN_ANOMALY   = 83.8982

EPHEMERIS_TYPE = 0
CLASSIFICATION_TYPE = U
NORAD_CAT_ID   = 270129
ELEMENT_SET_NO = 999
REV_AT_EPOCH   = 28222
BSTAR          = -.25162533E-2
MEAN_MOTION_DOT = -.736E-5
MEAN_MOTION_DDOT = 0

CCSDS_OMM_VERS = 2.0
CREATION_DATE  = 
ORIGINATOR     = 

OBJECT_NAME    = UNKNOWN
OBJECT_ID      = 
CENTER_NAME    = EARTH
REF_FRAME      = TEME
TIME_SYSTEM    = UTC
MEAN_ELEMENT_THEORY = SGP/SGP4

EPOCH          = 2025-11-11T03:06:50.666112
MEAN_MOTION    = 14.88688723
ECCENTRICITY   = .00166389
INCLINATION    = 99.1834
RA_OF_ASC_NODE = 89.8955
ARG_OF_PERICENTER = 295.6879
MEAN_ANOMALY   = 64.2615

EPHEMERIS_TYPE = 0
CLASSIFICATION_TYPE = U
NORAD_CAT_ID   = 270130
ELEMENT_SET_NO = 999
REV_AT_EPOCH   = 31063
BSTAR          = .13585275E-1
MEAN_MOTION_DOT = .129422E-2
MEAN_MOTION_DDOT = 0

CCSDS_OMM_VERS = 2.0
CREATION_DATE  = 
ORIGINATOR     = 

OBJECT_NAME    = UNKNOWN
OBJECT_ID      = 
CENTER_NAME    = EARTH
REF_FRAME      = TEME
TIME_SYSTEM    = UTC
MEAN_ELEMENT_THEORY = SGP/SGP4

EPOCH          = 2025-11-15T12:31:24.347712
MEAN_MOTION    = 4.52466520
ECCENTRICITY   = .54299176
INCLINATION    = 63.1223
RA_OF_ASC_NODE = 164.4742
ARG_OF_PERICENTER = 347.3300
MEAN_ANOMALY   = 3.2496

EPHEMERIS_TYPE = 0
CLASSIFICATION_TYPE = U
NORAD_CAT_ID   = 270131
ELEMENT_SET_NO = 999
REV_AT_EPOCH   = 9868
BSTAR          = .10602214E-2
MEAN_MOTION_DOT = .185E-5
MEAN_MOTION_DDOT = 0

CCSDS_OMM_VERS = 2.0
CREATION_DATE  = 
ORIGINATOR     = 

OBJECT_NAME    = UNKNOWN
OBJECT_ID      = 
CENTER_NAME    = EARTH
REF_FRAME      = TEME
TIME_SYSTEM    = UTC
MEAN_ELEMENT_THEORY = SGP/SGP4

EPOCH          = 2025-10-29T23:21:06.599520
MEAN_MOTION    = 12.79505868
ECCENTRICITY   = .03847797
INCLINATION    = 63.2048
RA_OF_ASC_NODE = 182.6089
ARG_OF_PERICENTER = 17.0981
MEAN_ANOMALY   = 344.2566

EPHEMERIS_TYPE = 0
CLASSIFICATION_TYPE = U
NORAD_CAT_ID   = 270133
ELEMENT_SET_NO = 999
REV_AT_EPOCH   = 27679
BSTAR          = .19219965E-2
MEAN_MOTION_DOT = .517E-5
MEAN_MOTION_DDOT = 0

